{"type": "FeatureCollection", "features": [ {"type": "Feature", "properties": {"norad_id": 66489, "name": "STARLINK-35696", "group": "last-30-days", "lat": 26.279609656789525, "lon": -62.95773709939723, "alt_km": 411.9294917327434, "timestamp": "2025-12-08T15:42:48.536108+00:00", "meta": {"OBJECT_NAME": "STARLINK-35696", "OBJECT_ID": "2025-263E", "EPOCH": "2025-12-08T06:00:02.999808", "MEAN_MOTION": 15.50569197, "ECCENTRICITY": 0.00017662, "INCLINATION": 43.0004, "RA_OF_ASC_NODE": 151.4082, "ARG_OF_PERICENTER": 279.9676, "MEAN_ANOMALY": 117.7742, "EPHEMERIS_TYPE": 0, "CLASSIFICATION_TYPE": "U", "NORAD_CAT_ID": 66489, "ELEMENT_SET_NO": 999, "REV_AT_EPOCH": 491, "BSTAR": -0.00054910285, "MEAN_MOTION_DOT": -0.00032411, "MEAN_MOTION_DDOT": 0}, "tle": {"line1": "1 66489U 25263E   25342.25003472 -.00032411  00000+0 -54910-3 0  9994", "line2": "2 66489  43.0004 151.4082 0001766 279.9676 117.7742 15.50569197  4914"}}, "geometry": {"type": "Point", "coordinates": [-62.95773709939723, 26.279609656789525]}}, {"type": "Feature", "properties": {"norad_id": 66490, "name": "STARLINK-35693", "group": "last-30-days", "lat": 25.16295668766228, "lon": -61.23728889191124, "alt_km": 411.938843648466, "timestamp": "2025-12-08T15:42:48.536119+00:00", "meta": {"OBJECT_NAME": "STARLINK-35693", "OBJECT_ID": "2025-263F", "EPOCH": "2025-12-08T06:00:02.999808", "MEAN_MOTION": 15.50502362, "ECCENTRICITY": 0.00016726, "INCLINATION": 43.0003, "RA_OF_ASC_NODE": 151.4037, "ARG_OF_PERICENTER": 280.939, "MEAN_ANOMALY": 118.7368, "EPHEMERIS_TYPE": 0, "CLASSIFICATION_TYPE": "U", "NORAD_CAT_ID": 66490, "ELEMENT_SET_NO": 999, "REV_AT_EPOCH": 491, "BSTAR": 0.0016155608, "MEAN_MOTION_DOT": 0.00095337, "MEAN_MOTION_DDOT": 0}, "tle": {"line1": "1 66490U 25263F   25342.25003472  .00095337  00000+0  16156-2 0  9999", "line2": "2 66490  43.0003 151.4037 0001672 280.9390 118.7368 15.50502362  4912"}}, "geometry": {"type": "Point", "coordinates": [-61.23728889191124, 25.16295668766228]}}, {"type": "Feature", "properties": {"norad_id": 66491, "name": "STARLINK-35663", "group": "last-30-days", "lat": 22.85986693561401, "lon": -57.872865777463495, "alt_km": 412.22560187457293, "timestamp": "2025-12-08T15:42:48.536129+00:00", "meta": {"OBJECT_NAME": "STARLINK-35663", "OBJECT_ID": "2025-263G", "EPOCH": "2025-12-08T06:00:02.999808", "MEAN_MOTION": 15.50505733, "ECCENTRICITY": 0.00017015, "INCLINATION": 43.0004, "RA_OF_ASC_NODE": 151.3937, "ARG_OF_PERICENTER": 281.1374, "MEAN_ANOMALY": 122.3678, "EPHEMERIS_TYPE": 0, "CLASSIFICATION_TYPE": "U", "NORAD_CAT_ID": 66491, "ELEMENT_SET_NO": 999, "REV_AT_EPOCH": 491, "BSTAR": 0.0019261105, "MEAN_MOTION_DOT": 0.00114016, "MEAN_MOTION_DDOT": 0}, "tle": {"line1": "1 66491U 25263G   25342.25003472  .00114016  00000+0  19261-2 0  9996", "line2": "2 66491  43.0004 151.3937 0001701 281.1374 122.3678 15.50505733  4910"}}, "geometry": {"type": "Point", "coordinates": [-57.872865777463495, 22.85986693561401]}}, {"type": "Feature", "properties": {"norad_id": 66492, "name": "STARLINK-35673", "group": "last-30-days", "lat": 21.69133315310233, "lon": -56.24704830186228, "alt_km": 412.4123005692036, "timestamp": "2025-12-08T15:42:48.536141+00:00", "meta": {"OBJECT_NAME": "STARLINK-35673", "OBJECT_ID": "2025-263H", "EPOCH": "2025-12-08T06:00:02.999808", "MEAN_MOTION": 15.50505918, "ECCENTRICITY": 0.0001746, "INCLINATION": 43.0005, "RA_OF_ASC_NODE": 151.3888, "ARG_OF_PERICENTER": 278.0629, "MEAN_ANOMALY": 127.3622, "EPHEMERIS_TYPE": 0, "CLASSIFICATION_TYPE": "U", "NORAD_CAT_ID": 66492, "ELEMENT_SET_NO": 999, "REV_AT_EPOCH": 491, "BSTAR": 0.0015868624, "MEAN_MOTION_DOT": 0.00093629, "MEAN_MOTION_DDOT": 0}, "tle": {"line1": "1 66492U 25263H   25342.25003472  .00093629  00000+0  15869-2 0  9993", "line2": "2 66492  43.0005 151.3888 0001746 278.0629 127.3622 15.50505918  4913"}}, "geometry": {"type": "Point", "coordinates": [-56.24704830186228, 21.69133315310233]}}, {"type": "Feature", "properties": {"norad_id": 66493, "name": "STARLINK-35597", "group": "last-30-days", "lat": 20.49605308138047, "lon": -54.63364712801433, "alt_km": 412.42657863961176, "timestamp": "2025-12-08T15:42:48.536152+00:00", "meta": {"OBJECT_NAME": "STARLINK-35597", "OBJECT_ID": "2025-263J", "EPOCH": "2025-12-08T06:00:02.999808", "MEAN_MOTION": 15.50570955, "ECCENTRICITY": 0.00015402, "INCLINATION": 43.0006, "RA_OF_ASC_NODE": 151.3832, "ARG_OF_PERICENTER": 265.4776, "MEAN_ANOMALY": 141.8582, "EPHEMERIS_TYPE": 0, "CLASSIFICATION_TYPE": "U", "NORAD_CAT_ID": 66493, "ELEMENT_SET_NO": 999, "REV_AT_EPOCH": 491, "BSTAR": -0.00072845466, "MEAN_MOTION_DOT": -0.00042831, "MEAN_MOTION_DDOT": 0}, "tle": {"line1": "1 66493U 25263J   25342.25003472 -.00042831  00000+0 -72845-3 0  9993", "line2": "2 66493  43.0006 151.3832 0001540 265.4776 141.8582 15.50570955  4918"}}, "geometry": {"type": "Point", "coordinates": [-54.63364712801433, 20.49605308138047]}}, {"type": "Feature", "properties": {"norad_id": 66494, "name": "STARLINK-35689", "group": "last-30-days", "lat": 24.019830645940953, "lon": -59.53885341780633, "alt_km": 411.9283300675497, "timestamp": "2025-12-08T15:42:48.536162+00:00", "meta": {"OBJECT_NAME": "STARLINK-35689", "OBJECT_ID": "2025-263K", "EPOCH": "2025-12-08T06:00:02.999808", "MEAN_MOTION": 15.50563355, "ECCENTRICITY": 0.00014748, "INCLINATION": 43.0003, "RA_OF_ASC_NODE": 151.3987, "ARG_OF_PERICENTER": 267.7982, "MEAN_ANOMALY": 133.7816, "EPHEMERIS_TYPE": 0, "CLASSIFICATION_TYPE": "U", "NORAD_CAT_ID": 66494, "ELEMENT_SET_NO": 999, "REV_AT_EPOCH": 491, "BSTAR": -0.00035324451, "MEAN_MOTION_DOT": -0.00020997, "MEAN_MOTION_DDOT": 0}, "tle": {"line1": "1 66494U 25263K   25342.25003472 -.00020997  00000+0 -35324-3 0  9994", "line2": "2 66494  43.0003 151.3987 0001474 267.7982 133.7816 15.50563355  4913"}}, "geometry": {"type": "Point", "coordinates": [-59.53885341780633, 24.019830645940953]}}, {"type": "Feature", "properties": {"norad_id": 66495, "name": "STARLINK-35832", "group": "last-30-days", "lat": 19.295716845716733, "lon": -53.05659125583062, "alt_km": 412.79097258153524, "timestamp": "2025-12-08T15:42:48.536178+00:00", "meta": {"OBJECT_NAME": "STARLINK-35832", "OBJECT_ID": "2025-263L", "EPOCH": "2025-12-08T06:00:02.999808", "MEAN_MOTION": 15.50503193, "ECCENTRICITY": 0.00017015, "INCLINATION": 43.0005, "RA_OF_ASC_NODE": 151.3792, "ARG_OF_PERICENTER": 283.7632, "MEAN_ANOMALY": 125.4949, "EPHEMERIS_TYPE": 0, "CLASSIFICATION_TYPE": "U", "NORAD_CAT_ID": 66495, "ELEMENT_SET_NO": 999, "REV_AT_EPOCH": 491, "BSTAR": 0.0017008348, "MEAN_MOTION_DOT": 0.00100457, "MEAN_MOTION_DDOT": 0}, "tle": {"line1": "1 66495U 25263L   25342.25003472  .00100457  00000+0  17008-2 0  9991", "line2": "2 66495  43.0005 151.3792 0001701 283.7632 125.4949 15.50503193  4912"}}, "geometry": {"type": "Point", "coordinates": [-53.05659125583062, 19.295716845716733]}}, {"type": "Feature", "properties": {"norad_id": 66496, "name": "STARLINK-35909", "group": "last-30-days", "lat": 18.07135792468657, "lon": -51.49083836705058, "alt_km": 412.75801080622296, "timestamp": "2025-12-08T15:42:48.536189+00:00", "meta": {"OBJECT_NAME": "STARLINK-35909", "OBJECT_ID": "2025-263M", "EPOCH": "2025-12-08T06:00:02.999808", "MEAN_MOTION": 15.50580985, "ECCENTRICITY": 0.00016902, "INCLINATION": 43.0006, "RA_OF_ASC_NODE": 151.3735, "ARG_OF_PERICENTER": 262.5513, "MEAN_ANOMALY": 148.62, "EPHEMERIS_TYPE": 0, "CLASSIFICATION_TYPE": "U", "NORAD_CAT_ID": 66496, "ELEMENT_SET_NO": 999, "REV_AT_EPOCH": 491, "BSTAR": -0.0010889928, "MEAN_MOTION_DOT": -0.00063716, "MEAN_MOTION_DDOT": 0}, "tle": {"line1": "1 66496U 25263M   25342.25003472 -.00063716  00000+0 -10890-2 0  9992", "line2": "2 66496  43.0006 151.3735 0001690 262.5513 148.6200 15.50580985  4912"}}, "geometry": {"type": "Point", "coordinates": [-51.49083836705058, 18.07135792468657]}}, {"type": "Feature", "properties": {"norad_id": 66497, "name": "STARLINK-35899", "group": "last-30-days", "lat": 16.85092931340812, "lon": -49.96640977591759, "alt_km": 413.1443878292175, "timestamp": "2025-12-08T15:42:48.536199+00:00", "meta": {"OBJECT_NAME": "STARLINK-35899", "OBJECT_ID": "2025-263N", "EPOCH": "2025-12-08T06:00:02.999808", "MEAN_MOTION": 15.50504325, "ECCENTRICITY": 0.00017657, "INCLINATION": 43.0005, "RA_OF_ASC_NODE": 151.3688, "ARG_OF_PERICENTER": 281.5141, "MEAN_ANOMALY": 131.5791, "EPHEMERIS_TYPE": 0, "CLASSIFICATION_TYPE": "U", "NORAD_CAT_ID": 66497, "ELEMENT_SET_NO": 999, "REV_AT_EPOCH": 491, "BSTAR": 0.0014580009, "MEAN_MOTION_DOT": 0.00085908, "MEAN_MOTION_DDOT": 0}, "tle": {"line1": "1 66497U 25263N   25342.25003472  .00085908  00000+0  14580-2 0  9998", "line2": "2 66497  43.0005 151.3688 0001765 281.5141 131.5791 15.50504325  4910"}}, "geometry": {"type": "Point", "coordinates": [-49.96640977591759, 16.85092931340812]}}, {"type": "Feature", "properties": {"norad_id": 66498, "name": "STARLINK-35907", "group": "last-30-days", "lat": 15.598731023559209, "lon": -48.437400736379495, "alt_km": 413.06306954068987, "timestamp": "2025-12-08T15:42:48.536209+00:00", "meta": {"OBJECT_NAME": "STARLINK-35907", "OBJECT_ID": "2025-263P", "EPOCH": "2025-12-08T06:00:02.999808", "MEAN_MOTION": 15.50570734, "ECCENTRICITY": 0.00014875, "INCLINATION": 43.0004, "RA_OF_ASC_NODE": 151.3635, "ARG_OF_PERICENTER": 265.9039, "MEAN_ANOMALY": 149.1, "EPHEMERIS_TYPE": 0, "CLASSIFICATION_TYPE": "U", "NORAD_CAT_ID": 66498, "ELEMENT_SET_NO": 999, "REV_AT_EPOCH": 491, "BSTAR": -0.00071926517, "MEAN_MOTION_DOT": -0.00042298, "MEAN_MOTION_DDOT": 0}, "tle": {"line1": "1 66498U 25263P   25342.25003472 -.00042298  00000+0 -71927-3 0  9995", "line2": "2 66498  43.0004 151.3635 0001487 265.9039 149.1000 15.50570734  4910"}}, "geometry": {"type": "Point", "coordinates": [-48.437400736379495, 15.598731023559209]}}]}